[
    {
      "postalCode": 93000,
      "city": "BOBIGNY",
      "location": "48.907688244, 2.43863982727"
    },
    {
      "postalCode": 20000,
      "city": "AJACCIO",
      "location": "41.9347926638, 8.70132275974"
    },
    {
      "postalCode": 38000,
      "city": "GRENOBLE",
      "location": "45.1821215167, 5.72133051752"
    },
    {
      "postalCode": 26000,
      "city": "VALENCE",
      "location": "44.9229811667, 4.91444013136"
    },
    {
      "postalCode": 45000,
      "city": "ORLEANS",
      "location": "47.8828634214, 1.91610357477"
    },
    {
      "postalCode": 25000,
      "city": "BESANCON",
      "location": "47.2553872249, 6.01948696494"
    },
    {
      "postalCode": 63000,
      "city": "CLERMONT-FERRAND",
      "location": "45.7856492991, 3.11554542903"
    },
    {
      "postalCode": 19000,
      "city": "TULLE",
      "location": "45.2731516999, 1.76313875655"
    },
    {
      "postalCode": "05000",
      "city": "GAP",
      "location": "44.5798600596, 6.06486052138"
    },
    {
      "postalCode": 82000,
      "city": "MONTAUBAN",
      "location": "44.0222594578, 1.36408636501"
    },
    {
      "postalCode": 79000,
      "city": "NIORT",
      "location": "46.328260242, -0.465353019369"
    },
    {
      "postalCode": 56000,
      "city": "VANNES",
      "location": "47.6597493766, -2.75714329498"
    },
    {
      "postalCode": 95000,
      "city": "PONTOISE",
      "location": "49.0513737853, 2.09487928948"
    },
    {
      "postalCode": 37000,
      "city": "TOURS",
      "location": "47.3986382281, 0.696526376417"
    },
    {
      "postalCode": "01000",
      "city": "BOURG-EN-BRESSE",
      "location": "46.2051520382, 5.24602125501"
    },
    {
      "postalCode": 32000,
      "city": "AUCH",
      "location": "43.6534300414, 0.575190250459"
    },
    {
      "postalCode": 12000,
      "city": "RODEZ",
      "location": "44.3582426254, 2.5672793892"
    },
    {
      "postalCode": 15000,
      "city": "AURILLAC",
      "location": "44.9245233686, 2.44162453828"
    },
    {
      "postalCode": 24000,
      "city": "PERIGUEUX",
      "location": "45.1918704873, 0.711825549847"
    },
    {
      "postalCode": 58000,
      "city": "NEVERS",
      "location": "46.9881194908, 3.15689130958"
    },
    {
      "postalCode": "02000",
      "city": "LAON",
      "location": "49.5679724897, 3.62089561902"
    },
    {
      "postalCode": 65000,
      "city": "TARBES",
      "location": "43.2347859635, 0.0660093937851"
    },
    {
      "postalCode": 47000,
      "city": "AGEN",
      "location": "44.2028139104, 0.625583928763"
    },
    {
      "postalCode": 81000,
      "city": "ALBI",
      "location": "43.9258213622, 2.14686328555"
    },
    {
      "postalCode": 41000,
      "city": "BLOIS",
      "location": "47.5817013938, 1.30625551583"
    },
    {
      "postalCode": 53000,
      "city": "LAVAL",
      "location": "48.0608565468, -0.766005687142"
    },
    {
      "postalCode": 72000,
      "city": "LE MANS",
      "location": "47.9885256718, 0.200030493539"
    },
    {
      "postalCode": 40000,
      "city": "MONT-DE-MARSAN",
      "location": "43.899361404, -0.490722577455"
    },
    {
      "postalCode": 35000,
      "city": "RENNES",
      "location": "48.1119791219, -1.68186449144"
    },
    {
      "postalCode": 11000,
      "city": "CARCASSONNE",
      "location": "43.2093798444, 2.34398855385"
    },
    {
      "postalCode": "08000",
      "city": "CHARLEVILLE-MEZIERES",
      "location": "49.7752965803, 4.71724655966"
    },
    {
      "postalCode": 70000,
      "city": "VESOUL",
      "location": "47.6320408648, 6.1548458149"
    },
    {
      "postalCode": 57000,
      "city": "METZ",
      "location": "49.1081133279, 6.1955245421"
    },
    {
      "postalCode": 31000,
      "city": "TOULOUSE",
      "location": "43.5963814303, 1.43167293364"
    },
    {
      "postalCode": "06000",
      "city": "NICE",
      "location": "43.7119992661, 7.23826889465"
    },
    {
      "postalCode": 52000,
      "city": "CHAUMONT",
      "location": "48.0980144211, 5.14070044621"
    },
    {
      "postalCode": 48000,
      "city": "MENDE",
      "location": "44.5294508592, 3.48086881176"
    },
    {
      "postalCode": 73000,
      "city": "CHAMBERY",
      "location": "45.583182552, 5.90903392417"
    },
    {
      "postalCode": "03000",
      "city": "MOULINS",
      "location": "46.5624641056, 3.32662040221"
    },
    {
      "postalCode": 18000,
      "city": "BOURGES",
      "location": "47.0749572013, 2.40417137557"
    },
    {
      "postalCode": 62000,
      "city": "ARRAS",
      "location": "50.2898964997, 2.76587316711"
    },
    {
      "postalCode": 17000,
      "city": "LA ROCHELLE",
      "location": "46.1620643972, -1.17465702836"
    },
    {
      "postalCode": 89000,
      "city": "AUXERRE",
      "location": "47.793488225, 3.58168281761"
    },
    {
      "postalCode": 76000,
      "city": "ROUEN",
      "location": "49.4413460103, 1.09256784278"
    },
    {
      "postalCode": 22000,
      "city": "SAINT-BRIEUC",
      "location": "48.5149806053, -2.76154552773"
    },
    {
      "postalCode": 80000,
      "city": "AMIENS",
      "location": "49.9009532186, 2.29007445539"
    },
    {
      "postalCode": 54000,
      "city": "NANCY",
      "location": "48.6901995499, 6.17588254434"
    },
    {
      "postalCode": 50000,
      "city": "SAINT-LO",
      "location": "49.1099624249, -1.07755642702"
    },
    {
      "postalCode": 92000,
      "city": "NANTERRE",
      "location": "48.8960701282, 2.20671346353"
    },
    {
      "postalCode": 71000,
      "city": "MACON",
      "location": "46.3205511756, 4.81842529639"
    },
    {
      "postalCode": 33000,
      "city": "BORDEAUX",
      "location": "44.8572445351, -0.57369678116"
    },
    {
      "postalCode": 28000,
      "city": "CHARTRES",
      "location": "48.4471464884, 1.50570610616"
    },
    {
      "postalCode": 46000,
      "city": "CAHORS",
      "location": "44.4507370916, 1.44075837848"
    },
    {
      "postalCode": 16000,
      "city": "ANGOULEME",
      "location": "45.6472585146, 0.14514490683"
    },
    {
      "postalCode": 69000,
      "city": "LYON",
      "location": "45.7699284397, 4.82922464978"
    },
    {
      "postalCode": 77000,
      "city": "MELUN",
      "location": "48.5444723553, 2.65795821917"
    },
    {
      "postalCode": 60000,
      "city": "BEAUVAIS",
      "location": "49.4365523321, 2.08616123661"
    },
    {
      "postalCode": 85000,
      "city": "LA ROCHE-SUR-YON",
      "location": "46.6675261644, -1.4077954093"
    },
    {
      "postalCode": 84000,
      "city": "AVIGNON",
      "location": "43.9352448339, 4.84071572505"
    },
    {
      "postalCode": 27000,
      "city": "EVREUX",
      "location": "49.02015421, 1.14164412464"
    },
    {
      "postalCode": 30000,
      "city": "NIMES",
      "location": "43.844938394, 4.34806796996"
    },
    {
      "postalCode": 66000,
      "city": "PERPIGNAN",
      "location": "42.6965954131, 2.89936953979"
    },
    {
      "postalCode": 78000,
      "city": "VERSAILLES",
      "location": "48.8025669671, 2.11789297191"
    },
    {
      "postalCode": 49000,
      "city": "ANGERS",
      "location": "47.476837416, -0.556125995444"
    },
    {
      "postalCode": 87000,
      "city": "LIMOGES",
      "location": "45.8542549589, 1.2487579024"
    },
    {
      "postalCode": 43000,
      "city": "LE PUY-EN-VELAY",
      "location": "45.0276366659, 3.89535229067"
    },
    {
      "postalCode": "07000",
      "city": "PRIVAS",
      "location": "44.7225391147, 4.59449538667"
    },
    {
      "postalCode": 74000,
      "city": "ANNECY",
      "location": "45.8906432566, 6.12551773598"
    },
    {
      "postalCode": 10000,
      "city": "TROYES",
      "location": "48.2967099637, 4.07827967525"
    },
    {
      "postalCode": 68000,
      "city": "COLMAR",
      "location": "48.1099405789, 7.38468690323"
    },
    {
      "postalCode": 23000,
      "city": "GUERET",
      "location": "46.1632121428, 1.87078672735"
    },
    {
      "postalCode": 67000,
      "city": "STRASBOURG",
      "location": "48.5712679849, 7.76752679517"
    },
    {
      "postalCode": 13000,
      "city": "MARSEILLE",
      "location": "43.2999009436, 5.38227869795"
    },
    {
      "postalCode": 29000,
      "city": "QUIMPER",
      "location": "47.9971425162, -4.09111944455"
    },
    {
      "postalCode": 90000,
      "city": "BELFORT",
      "location": "47.6471539414, 6.84541206237"
    },
    {
      "postalCode": 36000,
      "city": "CHATEAUROUX",
      "location": "46.8029617828, 1.69399812001"
    },
    {
      "postalCode": 64000,
      "city": "PAU",
      "location": "43.3200189773, -0.350337918181"
    },
    {
      "postalCode": 75000,
      "city": "PARIS",
      "location": "48.8626304852, 2.33629344655"
    },
    {
      "postalCode": 14000,
      "city": "CAEN",
      "location": "49.1847936737, -0.369801713036"
    },
    {
      "postalCode": 88000,
      "city": "EPINAL",
      "location": "48.1631202656, 6.47989286928"
    },
    {
      "postalCode": 55000,
      "city": "BAR-LE-DUC",
      "location": "48.7642280465, 5.16346492169"
    },
    {
      "postalCode": 34000,
      "city": "MONTPELLIER",
      "location": "43.6134409138, 3.86851657896"
    },
    {
      "postalCode": 86000,
      "city": "POITIERS",
      "location": "46.5839207726, 0.359947653003"
    },
    {
      "postalCode": 94000,
      "city": "CRETEIL",
      "location": "48.7837401836, 2.45463530415"
    },
    {
      "postalCode": 91000,
      "city": "EVRY",
      "location": "48.6294831659, 2.44008244492"
    },
    {
      "postalCode": 59000,
      "city": "LILLE",
      "location": "50.6317183168, 3.04783272312"
    },
    {
      "postalCode": 21000,
      "city": "DIJON",
      "location": "47.3229437965, 5.03788805877"
    },
    {
      "postalCode": 51000,
      "city": "CHALONS-EN-CHAMPAGNE",
      "location": "48.9640892125, 4.37883539725"
    },
    {
      "postalCode": 44000,
      "city": "NANTES",
      "location": "47.2316356767, -1.54831008605"
    },
    {
      "postalCode": 83000,
      "city": "TOULON",
      "location": "43.1361589728, 5.93239634249"
    },
    {
      "postalCode": 61000,
      "city": "ALENCON",
      "location": "48.4318193082, 0.0915406916107"
    },
    {
      "postalCode": "09000",
      "city": "FOIX",
      "location": "42.9658502274, 1.61037495894"
    },
    {
      "postalCode": 20200,
      "city": "BASTIA",
      "location": "42.6864768806, 9.42502133338"
    },
    {
      "postalCode": 39000,
      "city": "LONS-LE-SAUNIER",
      "location": "46.6744796278, 5.55733212947"
    },
    {
      "postalCode": 42000,
      "city": "SAINT-ETIENNE",
      "location": "45.4301235512, 4.37913997076"
    },
    {
      "postalCode": "04000",
      "city": "DIGNE-LES-BAINS",
      "location": "44.0908723554, 6.23590323452"
    }
  ]